*******************************************************************************
Ephemeris / WWW_USER Mon Mar 10 08:33:17 2025 Pasadena, USA      / Horizons    
*******************************************************************************
Target body name: 341764 (2007 VZ326)             {source: JPL#18}
Center body name: Earth (399)                     {source: DE441}
Center-site name: Mauna Kea
*******************************************************************************
Start time      : A.D. 2018-Sep-03 04:45:00.0000 UT      
Stop  time      : A.D. 2018-Sep-03 15:57:00.0000 UT      
Step-size       : 1 minutes
*******************************************************************************
Target pole/equ : undefined
Target radii    : undefined                                                    
Center geodetic : 204.5278, 19.8260847, 4.21024   {E-lon(deg),Lat(deg),Alt(km)}
Center cylindric: 204.5278, 6006.35451, 2151.0229 {E-lon(deg),Dxy(km),Dz(km)}
Center pole/equ : ITRF93                          {East-longitude positive}
Center radii    : 6378.137, 6378.137, 6356.752 km {Equator_a, b, pole_c}       
Target primary  : Sun
Vis. interferer : MOON (R_eq= 1737.400) km        {source: DE441}
Rel. light bend : Sun                             {source: DE441}
Rel. lght bnd GM: 1.3271E+11 km^3/s^2                                          
Small-body perts: Yes                             {source: SB441-N16}
Atmos refraction: NO (AIRLESS)
RA format       : HMS
Time format     : CAL 
Calendar mode   : Mixed Julian/Gregorian
RTS-only print  : NO       
EOP file        : eop.250307.p250603                                           
EOP coverage    : DATA-BASED 1962-JAN-20 TO 2025-MAR-07. PREDICTS-> 2025-JUN-02
Units conversion: 1 au= 149597870.700 km, c= 299792.458 km/s, 1 day= 86400.0 s 
Table cut-offs 1: Elevation (-90.0deg=NO ),Airmass (>38.000=NO), Daylight (YES)
Table cut-offs 2: Solar elongation (  0.0,180.0=NO ),Local Hour Angle( 0.0=NO )
Table cut-offs 3: RA/DEC angular rate (     0.0=NO )                           
*******************************************************************************
Initial IAU76/J2000 heliocentric ecliptic osculating elements (au, days, deg.):
  EPOCH=  2458738.5 ! 2019-Sep-12.00 (TDB)         Residual RMS= .13886        
   EC= .1008373990761695   QR= 2.768240023430626   TP= 2458584.3440952813      
   OM= 228.7009686323446   W=  245.4004729743531   IN= 4.232471987434818       
  Equivalent ICRF heliocentric cartesian coordinates (au, au/d):
   X=-2.388613100272569E+00  Y= 1.431394755664809E+00  Z= 3.975078424350988E-01
  VX=-6.081658482309184E-03 VY=-8.102092841560219E-03 VZ=-3.413222734767960E-03
Asteroid physical parameters (km, seconds, rotational period in hours):        
   GM= n.a.                RAD= n.a.               ROTPER= n.a.                
   H= 16.54                G= .150                 B-V= n.a.                   
                           ALBEDO= n.a.            STYP= n.a.                  
*******************************************************************************
 Date__(UT)__HR:MN     R.A._________(ICRF)_________DEC
******************************************************
$$SOE
 2018-Sep-03 12:57  m  05 41 50.863255 +22 09 41.15002
 2018-Sep-03 12:58  m  05 41 50.913082 +22 09 41.12690
 2018-Sep-03 12:59  m  05 41 50.962906 +22 09 41.10377
 2018-Sep-03 13:00  m  05 41 51.012726 +22 09 41.08063
 2018-Sep-03 13:01  m  05 41 51.062542 +22 09 41.05748
 2018-Sep-03 13:02  m  05 41 51.112354 +22 09 41.03432
 2018-Sep-03 13:03  m  05 41 51.162163 +22 09 41.01114
 2018-Sep-03 13:04  m  05 41 51.211967 +22 09 40.98796
 2018-Sep-03 13:05  m  05 41 51.261768 +22 09 40.96477
 2018-Sep-03 13:06  m  05 41 51.311565 +22 09 40.94156
 2018-Sep-03 13:07  m  05 41 51.361359 +22 09 40.91834
 2018-Sep-03 13:08  m  05 41 51.411149 +22 09 40.89512
 2018-Sep-03 13:09  m  05 41 51.460934 +22 09 40.87188
 2018-Sep-03 13:10  m  05 41 51.510717 +22 09 40.84863
 2018-Sep-03 13:11  m  05 41 51.560495 +22 09 40.82536
 2018-Sep-03 13:12  m  05 41 51.610270 +22 09 40.80209
 2018-Sep-03 13:13  m  05 41 51.660041 +22 09 40.77881
 2018-Sep-03 13:14  m  05 41 51.709808 +22 09 40.75551
 2018-Sep-03 13:15  m  05 41 51.759572 +22 09 40.73220
 2018-Sep-03 13:16  m  05 41 51.809332 +22 09 40.70888
 2018-Sep-03 13:17  m  05 41 51.859089 +22 09 40.68555
 2018-Sep-03 13:18  m  05 41 51.908841 +22 09 40.66221
 2018-Sep-03 13:19  m  05 41 51.958590 +22 09 40.63885
 2018-Sep-03 13:20  m  05 41 52.008336 +22 09 40.61549
 2018-Sep-03 13:21  m  05 41 52.058077 +22 09 40.59211
 2018-Sep-03 13:22  m  05 41 52.107816 +22 09 40.56872
 2018-Sep-03 13:23  m  05 41 52.157550 +22 09 40.54531
 2018-Sep-03 13:24  m  05 41 52.207281 +22 09 40.52190
 2018-Sep-03 13:25  m  05 41 52.257008 +22 09 40.49847
 2018-Sep-03 13:26  m  05 41 52.306732 +22 09 40.47503
 2018-Sep-03 13:27  m  05 41 52.356452 +22 09 40.45158
 2018-Sep-03 13:28  m  05 41 52.406169 +22 09 40.42811
 2018-Sep-03 13:29  m  05 41 52.455882 +22 09 40.40463
 2018-Sep-03 13:30  m  05 41 52.505591 +22 09 40.38114
 2018-Sep-03 13:31  m  05 41 52.555297 +22 09 40.35764
 2018-Sep-03 13:32  m  05 41 52.605000 +22 09 40.33412
 2018-Sep-03 13:33  m  05 41 52.654698 +22 09 40.31059
 2018-Sep-03 13:34  m  05 41 52.704394 +22 09 40.28705
 2018-Sep-03 13:35  m  05 41 52.754086 +22 09 40.26349
 2018-Sep-03 13:36  m  05 41 52.803774 +22 09 40.23992
 2018-Sep-03 13:37  m  05 41 52.853459 +22 09 40.21634
 2018-Sep-03 13:38  m  05 41 52.903140 +22 09 40.19274
 2018-Sep-03 13:39  m  05 41 52.952818 +22 09 40.16913
 2018-Sep-03 13:40  m  05 41 53.002492 +22 09 40.14551
 2018-Sep-03 13:41  m  05 41 53.052163 +22 09 40.12187
 2018-Sep-03 13:42  m  05 41 53.101831 +22 09 40.09822
 2018-Sep-03 13:43  m  05 41 53.151495 +22 09 40.07456
 2018-Sep-03 13:44  m  05 41 53.201156 +22 09 40.05088
 2018-Sep-03 13:45  m  05 41 53.250813 +22 09 40.02719
 2018-Sep-03 13:46  m  05 41 53.300467 +22 09 40.00348
 2018-Sep-03 13:47  m  05 41 53.350118 +22 09 39.97976
 2018-Sep-03 13:48  m  05 41 53.399765 +22 09 39.95603
 2018-Sep-03 13:49  m  05 41 53.449409 +22 09 39.93228
 2018-Sep-03 13:50  m  05 41 53.499049 +22 09 39.90852
 2018-Sep-03 13:51  m  05 41 53.548686 +22 09 39.88474
 2018-Sep-03 13:52  m  05 41 53.598320 +22 09 39.86095
 2018-Sep-03 13:53  m  05 41 53.647950 +22 09 39.83715
 2018-Sep-03 13:54  m  05 41 53.697577 +22 09 39.81333
 2018-Sep-03 13:55  m  05 41 53.747201 +22 09 39.78950
 2018-Sep-03 13:56  m  05 41 53.796822 +22 09 39.76565
 2018-Sep-03 13:57  m  05 41 53.846439 +22 09 39.74178
 2018-Sep-03 13:58  m  05 41 53.896053 +22 09 39.71791
 2018-Sep-03 13:59  m  05 41 53.945664 +22 09 39.69401
 2018-Sep-03 14:00  m  05 41 53.995271 +22 09 39.67011
 2018-Sep-03 14:01  m  05 41 54.044875 +22 09 39.64618
 2018-Sep-03 14:02  m  05 41 54.094476 +22 09 39.62225
 2018-Sep-03 14:03  m  05 41 54.144074 +22 09 39.59829
 2018-Sep-03 14:04  m  05 41 54.193669 +22 09 39.57433
 2018-Sep-03 14:05  m  05 41 54.243260 +22 09 39.55034
 2018-Sep-03 14:06  m  05 41 54.292849 +22 09 39.52635
 2018-Sep-03 14:07  m  05 41 54.342434 +22 09 39.50233
 2018-Sep-03 14:08  m  05 41 54.392015 +22 09 39.47830
 2018-Sep-03 14:09  m  05 41 54.441594 +22 09 39.45426
 2018-Sep-03 14:10  m  05 41 54.491170 +22 09 39.43020
 2018-Sep-03 14:11  m  05 41 54.540742 +22 09 39.40612
 2018-Sep-03 14:12  m  05 41 54.590312 +22 09 39.38203
 2018-Sep-03 14:13  m  05 41 54.639878 +22 09 39.35793
 2018-Sep-03 14:14  m  05 41 54.689441 +22 09 39.33380
 2018-Sep-03 14:15  m  05 41 54.739001 +22 09 39.30966
 2018-Sep-03 14:16  m  05 41 54.788559 +22 09 39.28551
 2018-Sep-03 14:17  m  05 41 54.838113 +22 09 39.26134
 2018-Sep-03 14:18  m  05 41 54.887664 +22 09 39.23715
 2018-Sep-03 14:19  m  05 41 54.937212 +22 09 39.21295
 2018-Sep-03 14:20  m  05 41 54.986757 +22 09 39.18873
 2018-Sep-03 14:21  m  05 41 55.036298 +22 09 39.16450
 2018-Sep-03 14:22  m  05 41 55.085837 +22 09 39.14025
 2018-Sep-03 14:23  m  05 41 55.135373 +22 09 39.11598
 2018-Sep-03 14:24  m  05 41 55.184906 +22 09 39.09170
 2018-Sep-03 14:25  m  05 41 55.234437 +22 09 39.06740
 2018-Sep-03 14:26  m  05 41 55.283964 +22 09 39.04308
 2018-Sep-03 14:27  m  05 41 55.333488 +22 09 39.01875
 2018-Sep-03 14:28  m  05 41 55.383009 +22 09 38.99440
 2018-Sep-03 14:29  m  05 41 55.432528 +22 09 38.97003
 2018-Sep-03 14:30  m  05 41 55.482043 +22 09 38.94565
 2018-Sep-03 14:31  m  05 41 55.531556 +22 09 38.92125
 2018-Sep-03 14:32  m  05 41 55.581066 +22 09 38.89683
 2018-Sep-03 14:33  m  05 41 55.630572 +22 09 38.87239
 2018-Sep-03 14:34  m  05 41 55.680076 +22 09 38.84794
 2018-Sep-03 14:35  m  05 41 55.729578 +22 09 38.82348
 2018-Sep-03 14:36  m  05 41 55.779076 +22 09 38.79899
 2018-Sep-03 14:37  m  05 41 55.828572 +22 09 38.77449
 2018-Sep-03 14:38  m  05 41 55.878065 +22 09 38.74997
 2018-Sep-03 14:39  m  05 41 55.927555 +22 09 38.72543
 2018-Sep-03 14:40  m  05 41 55.977042 +22 09 38.70088
 2018-Sep-03 14:41  m  05 41 56.026527 +22 09 38.67631
 2018-Sep-03 14:42  m  05 41 56.076008 +22 09 38.65172
 2018-Sep-03 14:43  m  05 41 56.125488 +22 09 38.62711
 2018-Sep-03 14:44  m  05 41 56.174964 +22 09 38.60249
 2018-Sep-03 14:45  m  05 41 56.224438 +22 09 38.57785
 2018-Sep-03 14:46  m  05 41 56.273909 +22 09 38.55319
 2018-Sep-03 14:47  m  05 41 56.323377 +22 09 38.52851
 2018-Sep-03 14:48  m  05 41 56.372843 +22 09 38.50382
 2018-Sep-03 14:49  m  05 41 56.422306 +22 09 38.47910
 2018-Sep-03 14:50  m  05 41 56.471766 +22 09 38.45437
 2018-Sep-03 14:51  m  05 41 56.521224 +22 09 38.42963
 2018-Sep-03 14:52  m  05 41 56.570679 +22 09 38.40486
 2018-Sep-03 14:53 Am  05 41 56.620132 +22 09 38.38008
 2018-Sep-03 14:54 Am  05 41 56.669582 +22 09 38.35527
 2018-Sep-03 14:55 Am  05 41 56.719030 +22 09 38.33045
 2018-Sep-03 14:56 Am  05 41 56.768475 +22 09 38.30562
 2018-Sep-03 14:57 Am  05 41 56.817917 +22 09 38.28076
 2018-Sep-03 14:58 Am  05 41 56.867357 +22 09 38.25588
 2018-Sep-03 14:59 Am  05 41 56.916795 +22 09 38.23099
